[{"OBJECT_NAME":"YAOGAN-43 01D","OBJECT_ID":"2024-148D","EPOCH":"2026-03-09T10:27:16.254720","MEAN_MOTION":15.28369377,"ECCENTRICITY":0.00025569,"INCLINATION":35.001,"RA_OF_ASC_NODE":61.7102,"ARG_OF_PERICENTER":326.2473,"MEAN_ANOMALY":33.808,"EPHEMERIS_TYPE":0,"CLASSIFICATION_TYPE":"U","NORAD_CAT_ID":60461,"ELEMENT_SET_NO":999,"REV_AT_EPOCH":8700,"BSTAR":0.00037765912,"MEAN_MOTION_DOT":0.00010676,"MEAN_MOTION_DDOT":0},{"OBJECT_NAME":"STARLINK-34401","OBJECT_ID":"2025-147C","EPOCH":"2026-03-09T17:33:48.700224","MEAN_MOTION":15.3019119,"ECCENTRICITY":0.00010615,"INCLINATION":53.1596,"RA_OF_ASC_NODE":242.8826,"ARG_OF_PERICENTER":53.5782,"MEAN_ANOMALY":306.5317,"EPHEMERIS_TYPE":0,"CLASSIFICATION_TYPE":"U","NORAD_CAT_ID":64757,"ELEMENT_SET_NO":999,"REV_AT_EPOCH":3868,"BSTAR":0.00064941035,"MEAN_MOTION_DOT":0.00018918,"MEAN_MOTION_DDOT":0}]
